[{"OBJECT_NAME":"CELESTIS-02 & TAURUS R\/B","OBJECT_ID":"1998-007D","EPOCH":"2026-03-09T22:56:59.337312","MEAN_MOTION":14.22453237,"ECCENTRICITY":0.00634235,"INCLINATION":108.0072,"RA_OF_ASC_NODE":131.996,"ARG_OF_PERICENTER":301.5817,"MEAN_ANOMALY":134.6877,"EPHEMERIS_TYPE":0,"CLASSIFICATION_TYPE":"U","NORAD_CAT_ID":25160,"ELEMENT_SET_NO":999,"REV_AT_EPOCH":45640,"BSTAR":6.4821117e-5,"MEAN_MOTION_DOT":1.8e-7,"MEAN_MOTION_DDOT":0},{"OBJECT_NAME":"SL-16 DEB","OBJECT_ID":"1992-093JZ","EPOCH":"2026-02-24T23:13:18.781536","MEAN_MOTION":13.94529703,"ECCENTRICITY":0.01445527,"INCLINATION":71.148,"RA_OF_ASC_NODE":168.4714,"ARG_OF_PERICENTER":213.1951,"MEAN_ANOMALY":146.0032,"EPHEMERIS_TYPE":0,"CLASSIFICATION_TYPE":"U","NORAD_CAT_ID":39709,"ELEMENT_SET_NO":999,"REV_AT_EPOCH":60256,"BSTAR":0.00045692986,"MEAN_MOTION_DOT":6.21e-6,"MEAN_MOTION_DDOT":0}]
